OPS 6582 (TRANSIT 5B-5) 
1 00965U 64083D   22095.85685594  .00000061  00000+0  72110-4 0  9990
2 00965  90.0308 195.2140 0042944  81.9893  33.7085 13.56773263835673
OSCAR 7 (AO-7)          
1 07530U 74089B   22095.87898448 -.00000037  00000+0  53687-4 0  9990
2 07530 101.8992  75.5360 0012191 179.3952 233.8094 12.53653890168379
UOSAT 2 (UO-11)         
1 14781U 84021B   22095.88081264  .00001262  00000+0  15932-3 0  9994
2 14781  97.6144  86.6447 0008019 189.7100 170.3961 14.83528673 29288
NOAA 9                  
1 15427U 84123A   22095.89097281  .00000171  00000+0  10964-3 0  9990
2 15427  99.0385  67.1639 0015163  15.0376  37.7452 14.16180606926340
LUSAT (LO-19)           
1 20442U 90005G   22095.83638924  .00000205  00000+0  91672-4 0  9992
2 20442  98.7863  59.6200 0012258  27.0911 333.0910 14.33037373682701
ITAMSAT (IO-26)         
1 22826U 93061D   22095.79520679  .00000112  00000+0  60986-4 0  9998
2 22826  98.8899 125.1519 0007986 247.2350 112.7988 14.30498567488025
RADIO ROSTO (RS-15)     
1 23439U 94085A   22095.93708331 -.00000037  00000+0  15882-3 0  9996
2 23439  64.8127 262.9040 0167204 285.0242  73.2230 11.27571325123318
JAS-2 (FO-29)           
1 24278U 96046B   22095.82202165  .00000005  00000+0  37459-4 0  9998
2 24278  98.5254 129.4739 0351296 111.7023 252.1901 13.53112579265789
NOAA 15                 
1 25338U 98030A   22095.87439897  .00000157  00000+0  83975-4 0  9992
2 25338  98.6526 126.3316 0011143 144.7427 215.4492 14.26104877242678
TECHSAT 1B (GO-32)      
1 25397U 98043D   22095.83293756  .00000102  00000+0  64395-4 0  9994
2 25397  98.8106  46.1388 0001023  12.7709 347.3495 14.23741290233097
ISS (ZARYA)             
1 25544U 98067A   22096.12475299  .00012932  00000+0  23502-3 0  9999
2 25544  51.6452 333.5117 0004408 351.7794 169.4554 15.49896139334009
ORSTED                  
1 25635U 99008B   22095.67637949  .00000545  00000+0  13599-3 0  9999
2 25635  96.4710 337.5790 0139763  54.0169 307.3895 14.48419680219741
PHASE 3D (AO-40)        
1 26609U 00072B   22095.32545801 -.00000084  00000+0  00000+0 0  9999
2 26609   7.5322 283.9139 7983170 352.2411   0.3733  1.25588304 98236
PCSAT (NO-44)           
1 26931U 01043C   22095.81864235  .00000186  00000+0  10281-3 0  9993
2 26931  67.0505 245.8744 0007736 273.5746  86.4471 14.30678916 71011
SAUDISAT 1C (SO-50)     
1 27607U 02058C   22095.89539859  .00000961  00000+0  15372-3 0  9997
2 27607  64.5546 163.9168 0073817 308.7877  50.6647 14.75988085 37669
CUTE-1 (CO-55)          
1 27844U 03031E   22095.90400998  .00000339  00000+0  17187-3 0  9990
2 27844  98.6816 104.6794 0008945 317.1591  42.8889 14.22407782973554
CUBESAT XI-IV (CO-57)   
1 27848U 03031J   22095.84455246  .00000285  00000+0  14888-3 0  9998
2 27848  98.6863 105.1541 0009049 332.5703  27.4996 14.21970733973365
MOZHAYETS 4 (RS-22)     
1 27939U 03042A   22095.84024527  .00001473  00000+0  26998-3 0  9990
2 27939  98.1797 236.6319 0014166  79.1567 281.1230 14.67223925990394
INMARSAT 4-F1           
1 28628U 05009A   22094.98280515 -.00000263  00000+0  00000+0 0  9995
2 28628   3.5604  34.3013 0002863 350.3417 305.9159  1.00271583 62289
NOAA 18                 
1 28654U 05018A   22095.89442743  .00000229  00000+0  14735-3 0  9993
2 28654  98.9543 166.3738 0014592 172.7702 187.3683 14.12708470869739
CUBESAT XI-V            
1 28895U 05043F   22095.81114356  .00001390  00000+0  27265-3 0  9998
2 28895  98.0940 228.3655 0016781  14.5285 345.6397 14.64182982876781
METOP-A                 
1 29499U 06044A   22095.88240222  .00001041  00000+0  14766-3 0  9995
2 29499  98.4599 138.1627 0197591 235.2984 306.9994 14.67022223802898
CARTOSAT-2 (IRS-P7)     
1 29710U 07001B   22095.84993643  .00013346  00000+0  35747-3 0  9996
2 29710  97.8606 197.3133 0158271 311.6979  47.0804 15.26371708825158
FALCONSAT-3             
1 30776U 07006E   22095.83867975  .00039851  00000+0  73539-3 0  9992
2 30776  35.4335  14.1174 0001967 301.0786  58.9751 15.48078806838308
CAPE-1                  
1 31130U 07012P   22095.78820405  .00001059  00000+0  23199-3 0  9991
2 31130  98.2642  36.8950 0095803 157.7229 202.8174 14.56945960794519
CARTOSAT-2A             
1 32783U 08021A   22095.87701266  .00001100  00000+0  15698-3 0  9992
2 32783  97.9725 156.8134 0013643  47.7608 312.4735 14.78654802752296
CUTE-1.7+APD II (CO-65) 
1 32785U 08021C   22095.40455829  .00003194  00000+0  34243-3 0  9996
2 32785  97.6512  68.6149 0014363 113.2205 247.0527 14.89250792755610
COMPASS-1               
1 32787U 08021E   22095.91972499  .00005712  00000+0  52439-3 0  9996
2 32787  97.5593  80.4524 0013147  37.4105 322.8029 14.95151643757213
AAUSAT-II               
1 32788U 08021F   22095.92083117  .00007220  00000+0  63520-3 0  9997
2 32788  97.5321  83.8570 0011770  18.5730 341.5919 14.96750121757588
DELFI-C3 (DO-64)        
1 32789U 08021G   22095.79184729  .00013740  00000+0  80613-3 0  9990
2 32789  97.3468 124.7911 0010491 204.6858 155.3872 15.11814130760943
SEEDS II (CO-66)        
1 32791U 08021J   22095.49716364  .00004670  00000+0  46303-3 0  9996
2 32791  97.6069  74.2821 0014769  75.8067 284.4792 14.92175539756397
YUBILEINY (RS-30)       
1 32953U 08025A   22095.86388843  .00000021  00000+0  80971-4 0  9994
2 32953  82.5023 229.0558 0019967  61.4137 298.8951 12.43108467629318
FENGYUN 3A              
1 32958U 08026A   22095.89608258  .00000132  00000+0  83576-4 0  9995
2 32958  98.4948  61.5239 0007815 228.3734 131.6773 14.18700273717935
PRISM (HITOMI)          
1 33493U 09002B   22095.87363270  .00007445  00000+0  61849-3 0  9997
2 33493  98.2255  78.3592 0014259  41.4599 318.7702 14.98985248718105
STARS (KUKAI)           
1 33498U 09002G   22095.70040372  .00002057  00000+0  28049-3 0  9998
2 33498  98.1775 346.4470 0011931 121.9191 238.3182 14.79748627710676
KKS-1 (KISEKI)          
1 33499U 09002H   22095.90672375  .00001020  00000+0  15633-3 0  9999
2 33499  98.2285 336.7136 0008894 178.8983 181.2247 14.75884166709546
NOAA 19                 
1 33591U 09005A   22095.88749700  .00000158  00000+0  11044-3 0  9992
2 33591  99.1570 128.4707 0014357  35.6290 324.5836 14.12545161677942
SWISSCUBE               
1 35932U 09051B   22095.84657540  .00000897  00000+0  21156-3 0  9995
2 35932  98.5781 309.7253 0006347 271.5090  88.5380 14.56749523665527
BEESAT-1                
1 35933U 09051C   22095.87146935  .00000767  00000+0  18226-3 0  9990
2 35933  98.5725 311.4275 0004599 287.7972  72.2723 14.56780561665602
ITUPSAT1                
1 35935U 09051E   22095.84472586  .00000687  00000+0  16752-3 0  9996
2 35935  98.5827 311.4741 0006930 289.4275  70.6172 14.55898199665315
XIWANG-1 (HOPE-1)       
1 36122U 09072B   22095.91597086 -.00000036  00000+0  17677-4 0  9996
2 36122 100.1761  69.9620 0007856 144.0005 216.1639 13.16367318591264
CARTOSAT-2B             
1 36795U 10035A   22095.91528179  .00000882  00000+0  12723-3 0  9994
2 36795  97.9683 157.0436 0014939 116.0910 244.1832 14.78655012633346
TISAT 1                 
1 36799U 10035E   22095.85443572  .00004093  00000+0  40457-3 0  9997
2 36799  98.1905 303.4265 0011359 340.9467  19.1324 14.92465190636931
FENGYUN 3B              
1 37214U 10059A   22095.83506379  .00000003  00000+0  25564-4 0  9999
2 37214  99.0935 100.5144 0021835 197.4872 162.5547 14.14248145590699
JUGNU                   
1 37839U 11058B   22095.83181713  .00000468  00000+0  10707-3 0  9990
2 37839  19.9604 255.9452 0018949  75.9174 138.5618 14.12763097541852
SRMSAT                  
1 37841U 11058D   22095.83705859  .00000443  00000+0  98138-4 0  9994
2 37841  19.9733 333.8536 0011827 265.8448 171.9130 14.10736996540977
M-CUBED & EXP-1 PRIME   
1 37855U 11061F   22095.81340405  .00008880  00000+0  40691-3 0  9996
2 37855 101.7042 176.6673 0158832 279.5967  78.7333 15.10362233570260
HORYU-2                 
1 38340U 12025D   22095.76598717  .00001946  00000+0  28731-3 0  9999
2 38340  98.1970 173.0797 0012758 100.8919 259.3726 14.76409514521518
METOP-B                 
1 38771U 12049A   22095.93760896  .00000127  00000+0  77827-4 0  9992
2 38771  98.7037 156.7360 0000385 130.4539  44.1628 14.21490542495433
SARAL                   
1 39086U 13009A   22095.86462192  .00000099  00000+0  53104-4 0  9999
2 39086  98.5489 282.5783 0002122 103.0320 257.1101 14.32064194476099
AAUSAT 3                
1 39087U 13009B   22095.81651808  .00000677  00000+0  24699-3 0  9997
2 39087  98.4052 297.1858 0013222 120.6573 239.5923 14.36096980477154
STRAND-1                
1 39090U 13009E   22095.79770263  .00000193  00000+0  82408-4 0  9991
2 39090  98.4098 295.8094 0010122 123.9276 236.2874 14.35264108476973
BRITE-AUSTRIA           
1 39091U 13009F   22095.50254952  .00000198  00000+0  84171-4 0  9997
2 39091  98.4110 294.6812 0011381 131.3964 228.8202 14.35245341476968
UNIBRITE                
1 39092U 13009G   22095.79652741  .00000206  00000+0  86895-4 0  9992
2 39092  98.4142 294.7173 0010373 125.8458 234.3693 14.35116629476963
SOMP                    
1 39134U 13015E   22095.88679203  .00015835  00000+0  60691-3 0  9997
2 39134  64.8625 299.6516 0032135 291.0357  68.7337 15.26207608495775
BEESAT-3                
1 39135U 13015F   22095.90073890  .00012018  00000+0  52106-3 0  9993
2 39135  64.8680 334.0356 0033785 299.3935  60.3822 15.22181391495063
BEESAT-2                
1 39136U 13015G   22095.83921286  .00011311  00000+0  51044-3 0  9992
2 39136  64.8768 341.9693 0011637 285.4629  74.5214 15.21303664494867
NEE-01 PEGASO           
1 39151U 13018B   22095.80575690  .00002037  00000+0  27101-3 0  9995
2 39151  97.9838 201.7610 0018030 128.4991 231.7841 14.80714745482920
CUBEBUG-1 (CAPITAN BETO)
1 39153U 13018D   22095.77127850  .00002577  00000+0  33572-3 0  9992
2 39153  98.0039 205.8835 0017922 123.7788 236.5134 14.81369228482990
